LEMUR-1                 
1 40044U 14033AL  26192.88323400  .00000888  00000+0  10759-3 0  9999
2 40044  97.7903 342.1444 0048047 358.8650   1.2448 14.85331099649134
LEMUR-2-GREENBERG       
1 42837U 17042N   26190.49536315  .00011532  00000+0  37497-3 0  9996
2 42837  97.3831  11.0293 0007135 283.6729  76.3718 15.32031511491802
LEMUR-2-ANDIS           
1 42838U 17042P   26193.46919441  .00012815  00000+0  36920-3 0  9997
2 42838  97.3674  14.2674 0007132 269.8003  90.2423 15.35849981492332
LEMUR-2-MONSON          
1 42839U 17042Q   26191.46928106  .00009600  00000+0  34677-3 0  9999
2 42839  97.4089  11.9359 0005156 266.7916  93.2733 15.28674858491721
LEMUR-2-FURIAUS         
1 42840U 17042R   26193.44556340  .00010642  00000+0  35675-3 0  9995
2 42840  97.3775  11.8672 0006239 340.6601  19.4403 15.31072029492076
LEMUR-2-PETERG          
1 42841U 17042S   26193.59886799  .00013235  00000+0  39230-3 0  9998
2 42841  97.3990  18.6904 0003130 231.4873 128.6090 15.34966420492338
LEMUR-2-DEMBITZ         
1 42842U 17042T   26193.46526970  .00009858  00000+0  33095-3 0  9996
2 42842  97.3821  14.9283 0005081 286.7424  73.3260 15.31053389492213
LEMUR-2-ZACHARY         
1 42845U 17042W   26193.47424905  .00031926  00000+0  52090-3 0  9992
2 42845  97.3575  25.6887 0002460 261.6834  98.4140 15.52533794493128
LEMUR-2-AMANDA-SVANTE   
1 48269U 21034B   26192.93265476  .00020915  00000+0  60136-3 0  9996
2 48269  97.5758 271.8961 0004497 151.4014 208.7477 15.35822625284857
LEMUR-2-SPECIAL-K       
1 48273U 21034F   26193.21876865  .00172789  00000+0  12138-2 0  9998
2 48273  97.5632 282.0516 0006324 216.8117 143.2713 15.73622953285619
LEMUR-2-EMBRIONOVIS     
1 56970U 23084AQ  26193.38270896  .00008294  00000+0  22271-3 0  9997
2 56970  97.6310 338.5644 0008065 217.3745 142.6939 15.38181247171559
LEMUR-2-DEVERILL-M-T    
1 57391U 23100F   26193.11415714  .00016119  00000+0  39346-3 0  9991
2 57391  99.4465 239.0952 0004785 309.8311  50.2507 15.40988276165082
LEMUR-2-BASS            
1 58259U 23174D   26193.49371542  .00011630  00000+0  25737-3 0  9999
2 58259  97.3850 278.5730 0007777  86.2691 273.9446 15.43934169149267
LEMUR-2-JK0903EM1407    
1 58336U 23174CJ  26192.96169835  .00017525  00000+0  28286-3 0  9997
2 58336  97.3924 284.1520 0003928  44.2300 315.9266 15.52951542149575
LEMUR-2-MJR092620       
1 58340U 23174CN  26193.54189666  .00013044  00000+0  27090-3 0  9995
2 58340  97.3981 284.0533 0005548  38.9821 321.1827 15.45798027149564
LEMUR-2-NIMBUS2000      
1 58899U 24022A   26193.54138311  .00014682  00000+0  35694-3 0  9996
2 58899  97.4088  43.8762 0009026  37.5068 322.6807 15.41041214136172
LEMUR-2-VALHALLA        
1 58900U 24022B   26193.54517831  .00010549  00000+0  26232-3 0  9993
2 58900  97.4084  43.8528 0009495  32.9596 327.2241 15.40435155136179
LEMUR-2-CAEL            
1 58903U 24022E   26193.53312518  .00011322  00000+0  26918-3 0  9991
2 58903  97.4069  44.8221 0007390  18.8003 341.3516 15.41796440136242
LEMUR-2-JOHNNYTRUONG    
1 59146U 24043BA  26193.40000749  .00028738  00000+0  32509-3 0  9992
2 59146  97.5383 346.7036 0004223 101.1525 259.0207 15.62400420131977
LEMUR-2-TOMATOKECHUP    
1 60471U 24149D   26192.79324289  .00006490  00000+0  18430-3 0  9999
2 60471  97.3803 274.9096 0003122 128.0995 232.0531 15.36537067105947
LEMUR-2-STELLA          
1 60533U 24149BT  26192.76554195  .00006496  00000+0  37867-3 0  9997
2 60533  97.6740 275.3352 0001184 113.7387 246.3968 15.12328256104214
LEMUR-2-MARHISYAM       
1 60536U 24149BW  26193.48320707  .00005945  00000+0  35251-3 0  9993
2 60536  97.6886 276.5309 0002738  74.5269 285.6263 15.11746387104304
LEMUR-2-AHMED-ASRAR     
1 60576U 24149DN  26192.76508708  .00006643  00000+0  37730-3 0  9996
2 60576  97.7007 277.9980 0000771 214.4074 145.7107 15.13261688104286
LEMUR-2-LLOYD           
1 60577U 24149DP  26193.16609564  .00006210  00000+0  38905-3 0  9999
2 60577  97.6751 274.3148 0004752  78.6462 281.5300 15.09716355104165
LEMUR-2-SQUIRRELCOMM    
1 60578U 24149DQ  26193.01733695  .00003206  00000+0  21586-3 0  9996
2 60578  97.6718 273.8533 0004272 342.4944  17.6135 15.07428709104148
LEMUR-2-SIERRINI        
1 60579U 24149DR  26193.04820347  .00007287  00000+0  43429-3 0  9994
2 60579  97.6843 275.7574 0006369  98.6701 261.5251 15.11469800104213
LEMUR-2-WILSON          
1 62694U 25009CP  26193.45817128  .00000825  00000+0  80106-4 0  9993
2 62694  97.7023 271.4799 0002226 339.7930  20.3202 14.95271893 81133
LEMUR-2-STAR-FOX        
1 62696U 25009CR  26193.19721705  .00003406  00000+0  25891-3 0  9998
2 62696  97.6920 274.6272 0002616  53.8668 306.2799 15.02819173 81311
LEMUR-2-ARIANNA         
1 62699U 25009CU  26192.79618634  .00003632  00000+0  27574-3 0  9993
2 62699  97.6857 273.9837 0002952  61.1158 299.0362 15.02817181 81256
LEMUR-2-ALISIA          
1 62706U 25009DB  26193.16870972  .00004948  00000+0  37072-3 0  9994
2 62706  97.6972 275.1716 0003904 138.4642 221.6881 15.03147322103916
